{
  "type": "FeatureCollection",
  "features": [
    {
      "type": "Feature",
      "properties": {
        "norad_id": 36036,
        "name": "SMOS",
        "group": "resource",
        "lat": -76.2882566899662,
        "lon": -137.2046638165486,
        "alt_km": 767.3375908121589,
        "timestamp": "2025-12-26T11:25:44.876175+00:00",
        "meta_object_name": "SMOS",
        "meta_object_id": "2009-059A",
        "meta_epoch": "2025-12-26T03:27:24.344064",
        "meta_mean_motion": 14.39752905,
        "meta_eccentricity": 0.0001047,
        "meta_inclination": 98.4382,
        "meta_ra_of_asc_node": 184.9941,
        "meta_arg_of_pericenter": 83.4772,
        "meta_mean_anomaly": 276.6536,
        "meta_ephemeris_type": 0,
        "meta_classification_type": "U",
        "meta_norad_cat_id": 36036,
        "meta_element_set_no": 999,
        "meta_rev_at_epoch": 84855,
        "meta_bstar": 0.00013557,
        "meta_mean_motion_dot": 3.81e-06,
        "meta_mean_motion_ddot": 0,
        "tle_line1": "1 36036U 09059A   25360.14403176  .00000381  00000+0  13557-3 0  9998",
        "tle_line2": "2 36036  98.4382 184.9941 0001047  83.4772 276.6536 14.39752905848553"
      },
      "geometry": {
        "type": "Point",
        "coordinates": [
          -137.2046638165486,
          -76.2882566899662
        ]
      }
    },
    {
      "type": "Feature",
      "properties": {
        "norad_id": 36110,
        "name": "YAOGAN-7",
        "group": "resource",
        "lat": -1.5480230524569885,
        "lon": 61.96501390016943,
        "alt_km": 629.7262694345591,
        "timestamp": "2025-12-26T11:25:44.876185+00:00",
        "meta_object_name": "YAOGAN-7",
        "meta_object_id": "2009-069A",
        "meta_epoch": "2025-12-26T02:28:59.852064",
        "meta_mean_motion": 14.77751393,
        "meta_eccentricity": 0.0023487,
        "meta_inclination": 98.0293,
        "meta_ra_of_asc_node": 241.8123,
        "meta_arg_of_pericenter": 235.7484,
        "meta_mean_anomaly": 124.1501,
        "meta_ephemeris_type": 0,
        "meta_classification_type": "U",
        "meta_norad_cat_id": 36110,
        "meta_element_set_no": 999,
        "meta_rev_at_epoch": 86406,
        "meta_bstar": 9.6002e-05,
        "meta_mean_motion_dot": 6.38e-06,
        "meta_mean_motion_ddot": 0,
        "tle_line1": "1 36110U 09069A   25360.10347051  .00000638  00000+0  96002-4 0  9999",
        "tle_line2": "2 36110  98.0293 241.8123 0023487 235.7484 124.1501 14.77751393864067"
      },
      "geometry": {
        "type": "Point",
        "coordinates": [
          61.96501390016943,
          -1.5480230524569885
        ]
      }
    },
    {
      "type": "Feature",
      "properties": {
        "norad_id": 36605,
        "name": "TANDEM-X",
        "group": "resource",
        "lat": -48.085998093669225,
        "lon": 14.032308489449527,
        "alt_km": 516.1953109434853,
        "timestamp": "2025-12-26T11:25:44.876194+00:00",
        "meta_object_name": "TANDEM-X",
        "meta_object_id": "2010-030A",
        "meta_epoch": "2025-12-25T13:30:40.340160",
        "meta_mean_motion": 15.19154497,
        "meta_eccentricity": 0.0001775,
        "meta_inclination": 97.4454,
        "meta_ra_of_asc_node": 4.7557,
        "meta_arg_of_pericenter": 93.2666,
        "meta_mean_anomaly": 266.8771,
        "meta_ephemeris_type": 0,
        "meta_classification_type": "U",
        "meta_norad_cat_id": 36605,
        "meta_element_set_no": 999,
        "meta_rev_at_epoch": 86028,
        "meta_bstar": 5.683e-05,
        "meta_mean_motion_dot": 1.127e-05,
        "meta_mean_motion_ddot": 0,
        "tle_line1": "1 36605U 10030A   25359.56296690  .00001127  00000+0  56830-4 0  9997",
        "tle_line2": "2 36605  97.4454   4.7557 0001775  93.2666 266.8771 15.19154497860282"
      },
      "geometry": {
        "type": "Point",
        "coordinates": [
          14.032308489449527,
          -48.085998093669225
        ]
      }
    },
    {
      "type": "Feature",
      "properties": {
        "norad_id": 36795,
        "name": "CARTOSAT-2B",
        "group": "resource",
        "lat": 21.768625170306827,
        "lon": -127.81066093445367,
        "alt_km": 637.7259781988532,
        "timestamp": "2025-12-26T11:25:44.876203+00:00",
        "meta_object_name": "CARTOSAT-2B",
        "meta_object_id": "2010-035A",
        "meta_epoch": "2025-12-26T04:13:20.351136",
        "meta_mean_motion": 14.78746014,
        "meta_eccentricity": 0.001249,
        "meta_inclination": 97.7831,
        "meta_ra_of_asc_node": 48.7679,
        "meta_arg_of_pericenter": 36.9481,
        "meta_mean_anomaly": 323.2588,
        "meta_ephemeris_type": 0,
        "meta_classification_type": "U",
        "meta_norad_cat_id": 36795,
        "meta_element_set_no": 999,
        "meta_rev_at_epoch": 83428,
        "meta_bstar": 0.00017325,
        "meta_mean_motion_dot": 1.223e-05,
        "meta_mean_motion_ddot": 0,
        "tle_line1": "1 36795U 10035A   25360.17592999  .00001223  00000+0  17325-3 0  9994",
        "tle_line2": "2 36795  97.7831  48.7679 0012490  36.9481 323.2588 14.78746014834283"
      },
      "geometry": {
        "type": "Point",
        "coordinates": [
          -127.81066093445367,
          21.768625170306827
        ]
      }
    },
    {
      "type": "Feature",
      "properties": {
        "norad_id": 36834,
        "name": "YAOGAN-10",
        "group": "resource",
        "lat": 10.385475671571779,
        "lon": -158.3459359418487,
        "alt_km": 616.2640119978214,
        "timestamp": "2025-12-26T11:25:44.876212+00:00",
        "meta_object_name": "YAOGAN-10",
        "meta_object_id": "2010-038A",
        "meta_epoch": "2025-12-26T04:36:19.079136",
        "meta_mean_motion": 14.84658538,
        "meta_eccentricity": 0.0001374,
        "meta_inclination": 97.9135,
        "meta_ra_of_asc_node": 19.9111,
        "meta_arg_of_pericenter": 78.3626,
        "meta_mean_anomaly": 12.2872,
        "meta_ephemeris_type": 0,
        "meta_classification_type": "U",
        "meta_norad_cat_id": 36834,
        "meta_element_set_no": 999,
        "meta_rev_at_epoch": 83153,
        "meta_bstar": 0.00022235,
        "meta_mean_motion_dot": 1.827e-05,
        "meta_mean_motion_ddot": 0,
        "tle_line1": "1 36834U 10038A   25360.19188749  .00001827  00000+0  22235-3 0  9993",
        "tle_line2": "2 36834  97.9135  19.9111 0001374  78.3626  12.2872 14.84658538831533"
      },
      "geometry": {
        "type": "Point",
        "coordinates": [
          -158.3459359418487,
          10.385475671571779
        ]
      }
    },
    {
      "type": "Feature",
      "properties": {
        "norad_id": 37216,
        "name": "COSMO-SKYMED 4",
        "group": "resource",
        "lat": -29.697308852952332,
        "lon": -173.8767899514891,
        "alt_km": 628.8132121110821,
        "timestamp": "2025-12-26T11:25:44.876220+00:00",
        "meta_object_name": "COSMO-SKYMED 4",
        "meta_object_id": "2010-060A",
        "meta_epoch": "2025-12-26T03:27:46.899648",
        "meta_mean_motion": 14.82162538,
        "meta_eccentricity": 0.0001398,
        "meta_inclination": 97.8807,
        "meta_ra_of_asc_node": 181.2655,
        "meta_arg_of_pericenter": 81.9904,
        "meta_mean_anomaly": 278.1468,
        "meta_ephemeris_type": 0,
        "meta_classification_type": "U",
        "meta_norad_cat_id": 37216,
        "meta_element_set_no": 999,
        "meta_rev_at_epoch": 81893,
        "meta_bstar": 0.00014562,
        "meta_mean_motion_dot": 1.107e-05,
        "meta_mean_motion_ddot": 0,
        "tle_line1": "1 37216U 10060A   25360.14429282  .00001107  00000+0  14562-3 0  9993",
        "tle_line2": "2 37216  97.8807 181.2655 0001398  81.9904 278.1468 14.82162538818935"
      },
      "geometry": {
        "type": "Point",
        "coordinates": [
          -173.8767899514891,
          -29.697308852952332
        ]
      }
    },
    {
      "type": "Feature",
      "properties": {
        "norad_id": 37387,
        "name": "RESOURCESAT-2",
        "group": "resource",
        "lat": -5.773387319064135,
        "lon": -116.93076365586083,
        "alt_km": 827.7243805735261,
        "timestamp": "2025-12-26T11:25:44.876230+00:00",
        "meta_object_name": "RESOURCESAT-2",
        "meta_object_id": "2011-015A",
        "meta_epoch": "2025-12-26T03:48:05.436000",
        "meta_mean_motion": 14.21602319,
        "meta_eccentricity": 0.0005765,
        "meta_inclination": 98.7859,
        "meta_ra_of_asc_node": 63.6489,
        "meta_arg_of_pericenter": 5.6034,
        "meta_mean_anomaly": 354.5207,
        "meta_ephemeris_type": 0,
        "meta_classification_type": "U",
        "meta_norad_cat_id": 37387,
        "meta_element_set_no": 999,
        "meta_rev_at_epoch": 76159,
        "meta_bstar": 7.4266e-05,
        "meta_mean_motion_dot": 1.18e-06,
        "meta_mean_motion_ddot": 0,
        "tle_line1": "1 37387U 11015A   25360.15839625  .00000118  00000+0  74266-4 0  9999",
        "tle_line2": "2 37387  98.7859  63.6489 0005765   5.6034 354.5207 14.21602319761596"
      },
      "geometry": {
        "type": "Point",
        "coordinates": [
          -116.93076365586083,
          -5.773387319064135
        ]
      }
    }
  ]
}